NORAD_CAT_ID,OBJECT_NAME,OBJECT_TYPE,EPOCH,MEAN_MOTION,ECCENTRICITY,INCLINATION,RA_OF_ASC_NODE,ARG_OF_PERICENTER,MEAN_ANOMALY,BSTAR,MEAN_MOTION_DOT,MEAN_MOTION_DDOT,TLE_LINE0,TLE_LINE1,TLE_LINE2,SEMIMAJOR_AXIS,PERIOD,APOGEE,PERIGEE,DECAYED
52502.0,STARLINK-3912,PAYLOAD,2023-05-03 00:38:52,15.08845504,0.0001131,53.2181,35.3571,84.2935,275.8186,5.678e-05,6.16e-06,0.0,0 STARLINK-3912,1 52502U 22049BD  23123.02699967  .00000616  00000-0  56780-4 0  9993,2 52502  53.2181  35.3571 0001131  84.2935 275.8186 15.08845504 55431,6917.864,95.437,540.511,538.946,0.0
52502.0,STARLINK-3912,PAYLOAD,2023-05-03 21:18:53,15.0884175,0.0001254,53.2184,31.49,88.292,271.8216,-2.0728e-05,-6.18e-06,0.0,0 STARLINK-3912,1 52502U 22049BD  23123.88812361 -.00000618  00000-0 -20728-4 0  9999,2 52502  53.2184  31.4900 0001254  88.2920 271.8216 15.08841750 55407,6917.875,95.437,540.608,538.873,0.0
52502.0,STARLINK-3912,PAYLOAD,2023-05-04 03:40:26,15.08843704,0.0001262,53.2184,30.3004,88.8134,271.3003,-7.4276e-06,-4.06e-06,0.0,0 STARLINK-3912,1 52502U 22049BD  23124.15308124 -.00000406  00000-0 -74276-5 0  9990,2 52502  53.2184  30.3004 0001262  88.8134 271.3003 15.08843704 55604,6917.869,95.437,540.607,538.861,0.0
52502.0,STARLINK-3912,PAYLOAD,2023-05-04 21:09:41,15.08838826,0.0001194,53.2174,27.0296,86.7734,273.3395,-2.0702e-05,-6.17e-06,0.0,0 STARLINK-3912,1 52502U 22049BD  23124.88172553 -.00000617  00000-0 -20702-4 0  9993,2 52502  53.2174  27.0296 0001194  86.7734 273.3395 15.08838826 55555,6917.884,95.438,540.575,538.923,0.0
52502.0,STARLINK-3912,PAYLOAD,2023-05-05 21:00:28,15.08833768,0.000131,53.2177,22.5706,90.6234,269.4908,-3.4392e-05,-8.35e-06,0.0,0 STARLINK-3912,1 52502U 22049BD  23125.87533107 -.00000835  00000-0 -34392-4 0  9991,2 52502  53.2177  22.5706 0001310  90.6234 269.4908 15.08833768 55706,6917.899,95.438,540.671,538.858,0.0
52502.0,STARLINK-3912,PAYLOAD,2023-05-05 22:35:51,15.08834363,0.0001311,53.2176,22.2733,90.6242,269.49,-3.0083e-05,-7.67e-06,0.0,0 STARLINK-3912,1 52502U 22049BD  23125.94157076 -.00000767  00000-0 -30083-4 0  9993,2 52502  53.2176  22.2733 0001311  90.6242 269.4900 15.08834363 55874,6917.898,95.438,540.67,538.856,0.0
52502.0,STARLINK-3912,PAYLOAD,2023-05-07 03:12:45,15.0886393,0.0001344,53.217,16.92,103.4842,256.63,0.0002344,3.447e-05,0.0,0 STARLINK-3912,1 52502U 22049BD  23127.13386107  .00003447  00000-0  23440-3 0  9999,2 52502  53.2170  16.9200 0001344 103.4842 256.6300 15.08863930 56057,6917.807,95.436,540.602,538.742,0.0
52502.0,STARLINK-3912,PAYLOAD,2023-05-07 20:42:03,15.08826621,0.0001255,53.2162,13.6502,107.4857,252.6273,-6.8275e-05,-1.374e-05,0.0,0 STARLINK-3912,1 52502U 22049BD  23127.86253782 -.00001374  00000-0 -68275-4 0  9996,2 52502  53.2162  13.6502 0001255 107.4857 252.6273 15.08826621 56161,6917.921,95.438,540.654,538.918,0.0
52502.0,STARLINK-3912,PAYLOAD,2023-05-07 22:17:26,15.08822856,0.0001119,53.2165,13.3533,108.1895,251.9219,-9.4817e-05,-1.796e-05,0.0,0 STARLINK-3912,1 52502U 22049BD  23127.92878123 -.00001796  00000-0 -94817-4 0  9994,2 52502  53.2165  13.3533 0001119 108.1895 251.9219 15.08822856 56016,6917.933,95.439,540.572,539.024,0.0
52502.0,STARLINK-3912,PAYLOAD,2023-05-08 22:08:13,15.08836848,0.0001117,53.2169,8.8917,93.9446,266.1673,-0.00015354,-2.73e-05,0.0,0 STARLINK-3912,1 52502U 22049BD  23128.92238070 -.00002730  00000-0 -15354-3 0  9993,2 52502  53.2169   8.8917 0001117  93.9446 266.1673 15.08836848 56160,6917.89,95.438,540.528,538.982,0.0
52502.0,STARLINK-3912,PAYLOAD,2023-05-08 23:43:36,15.08837221,0.0001098,53.2171,8.5944,93.4292,266.6826,-0.00014526,-2.599e-05,0.0,0 STARLINK-3912,1 52502U 22049BD  23128.98862045 -.00002599  00000-0 -14526-3 0  9997,2 52502  53.2171   8.5944 0001098  93.4292 266.6826 15.08837221 56174,6917.889,95.438,540.513,538.994,0.0
52502.0,STARLINK-3912,PAYLOAD,2023-05-09 21:59:00,15.08850701,0.0001001,53.2166,4.4304,84.1134,275.9972,0.00056509,8.72e-05,0.0,0 STARLINK-3912,1 52502U 22049BD  23129.91597397  .00008720  00000-0  56509-3 0  9993,2 52502  53.2166   4.4304 0001001  84.1134 275.9972 15.08850701 56318,6917.848,95.437,540.405,539.02,0.0
52502.0,STARLINK-3912,PAYLOAD,2023-05-10 18:39:01,15.08849021,0.0001054,53.2167,0.5649,82.3746,277.7366,0.00034755,5.249e-05,0.0,0 STARLINK-3912,1 52502U 22049BD  23130.77709532  .00005249  00000-0  34755-3 0  9997,2 52502  53.2167   0.5649 0001054  82.3746 277.7366 15.08849021 56607,6917.853,95.437,540.447,538.989,0.0
52502.0,STARLINK-3912,PAYLOAD,2023-05-10 21:49:46,15.08858418,0.0001081,53.2169,359.9691,87.1064,273.0051,0.00044399,6.789e-05,0.0,0 STARLINK-3912,1 52502U 22049BD  23130.90957132  .00006789  00000-0  44399-3 0  9998,2 52502  53.2169 359.9691 0001081  87.1064 273.0051 15.08858418 56467,6917.824,95.436,540.437,538.941,0.0
52502.0,STARLINK-3912,PAYLOAD,2023-05-11 21:40:34,15.08843774,0.0001031,53.2152,355.5118,68.9871,291.1232,-8.6108e-06,-4.25e-06,0.0,0 STARLINK-3912,1 52502U 22049BD  23131.90317348 -.00000425  00000-0 -86108-5 0  9997,2 52502  53.2152 355.5118 0001031  68.9871 291.1232 15.08843774 56778,6917.869,95.437,540.447,539.021,0.0
52502.0,STARLINK-3912,PAYLOAD,2023-05-12 18:20:35,15.08842467,0.0001105,53.2161,351.6448,71.904,288.2072,0.00014279,1.986e-05,0.0,0 STARLINK-3912,1 52502U 22049BD  23132.76429694  .00001986  00000-0  14279-3 0  9999,2 52502  53.2161 351.6448 0001105  71.9040 288.2072 15.08842467 56749,6917.873,95.437,540.502,538.973,0.0
52502.0,STARLINK-3912,PAYLOAD,2023-05-12 21:31:21,15.08850476,0.0001099,53.2151,351.0515,73.7091,286.4022,0.00027514,4.095e-05,0.0,0 STARLINK-3912,1 52502U 22049BD  23132.89677384  .00004095  00000-0  27514-3 0  9994,2 52502  53.2151 351.0515 0001099  73.7091 286.4022 15.08850476 56761,6917.848,95.437,540.474,538.953,0.0
52502.0,STARLINK-3912,PAYLOAD,2023-05-13 21:22:08,15.0883793,0.0001091,53.2149,346.5898,80.6544,279.4572,4.7225e-05,4.64e-06,0.0,0 STARLINK-3912,1 52502U 22049BD  23133.89037860  .00000464  00000-0  47225-4 0  9992,2 52502  53.2149 346.5898 0001091  80.6544 279.4572 15.08837930 56912,6917.887,95.438,540.506,538.997,0.0
52502.0,STARLINK-3912,PAYLOAD,2023-05-14 21:12:55,15.08848245,0.0001149,53.2161,342.1307,98.7827,261.3295,-5.0376e-05,-1.09e-05,0.0,0 STARLINK-3912,1 52502U 22049BD  23134.88397517 -.00001090  00000-0 -50376-4 0  9999,2 52502  53.2161 342.1307 0001149  98.7827 261.3295 15.08848245 57061,6917.855,95.437,540.515,538.925,0.0
52502.0,STARLINK-3912,PAYLOAD,2023-05-15 00:23:42,15.08839767,0.0001194,53.2148,341.5346,92.0918,268.0211,0.0004505,6.889e-05,0.0,0 STARLINK-3912,1 52502U 22049BD  23135.01646041  .00006889  00000-0  45050-3 0  9995,2 52502  53.2148 341.5346 0001194  92.0918 268.0211 15.08839767 57241,6917.881,95.438,540.572,538.92,0.0
52502.0,STARLINK-3912,PAYLOAD,2023-05-15 06:45:14,15.08841072,0.0001495,53.216,340.3427,79.3413,280.7747,0.00013287,1.827e-05,0.0,0 STARLINK-3912,1 52502U 22049BD  23135.28141975  .00001827  00000-0  13287-3 0  9994,2 52502  53.2160 340.3427 0001495  79.3413 280.7747 15.08841072 57128,6917.877,95.437,540.776,538.708,0.0
52502.0,STARLINK-3912,PAYLOAD,2023-05-15 22:39:06,15.08838498,0.000157,53.2158,337.3693,85.1525,274.9646,7.6739e-05,9.33e-06,0.0,0 STARLINK-3912,1 52502U 22049BD  23135.94382179  .00000933  00000-0  76739-4 0  9999,2 52502  53.2158 337.3693 0001570  85.1525 274.9646 15.08838498 57388,6917.885,95.438,540.836,538.664,0.0
52502.0,STARLINK-3912,PAYLOAD,2023-05-16 12:57:34,15.08840346,0.000143,53.2147,334.6934,84.9105,275.205,-6.6476e-05,-1.346e-05,0.0,0 STARLINK-3912,1 52502U 22049BD  23136.53998320 -.00001346  00000-0 -66476-4 0  9994,2 52502  53.2147 334.6934 0001430  84.9105 275.2050 15.08840346 57311,6917.879,95.438,540.734,538.755,0.0
52502.0,STARLINK-3912,PAYLOAD,2023-05-16 19:19:07,15.08837517,0.0001053,53.2156,333.5066,80.2821,279.829,-7.8349e-06,-4.12e-06,0.0,0 STARLINK-3912,1 52502U 22049BD  23136.80494346 -.00000412  00000-0 -78349-5 0  9999,2 52502  53.2156 333.5066 0001053  80.2821 279.8290 15.08837517 57356,6917.888,95.438,540.481,539.025,0.0
52502.0,STARLINK-3912,PAYLOAD,2023-05-17 03:16:03,15.08835585,0.0001186,53.2163,332.0176,84.4755,275.6373,-3.1042e-05,-7.82e-06,0.0,0 STARLINK-3912,1 52502U 22049BD  23137.13614789 -.00000782  00000-0 -31042-4 0  9999,2 52502  53.2163 332.0176 0001186  84.4755 275.6373 15.08835585 57561,6917.894,95.438,540.579,538.938,0.0
52502.0,STARLINK-3912,PAYLOAD,2023-05-17 20:45:17,15.0884001,0.0001122,53.2165,328.7471,82.9163,277.1957,0.00015852,2.236e-05,0.0,0 STARLINK-3912,1 52502U 22049BD  23137.86478294  .00002236  00000-0  15852-3 0  9992,2 52502  53.2165 328.7471 0001122  82.9163 277.1957 15.08840010 57518,6917.88,95.438,540.522,538.969,0.0
52502.0,STARLINK-3912,PAYLOAD,2023-05-17 23:56:03,15.0884457,0.0001146,53.2156,328.1525,78.8041,281.308,0.0002643,3.921e-05,0.0,0 STARLINK-3912,1 52502U 22049BD  23137.99726318  .00003921  00000-0  26430-3 0  9995,2 52502  53.2156 328.1525 0001146  78.8041 281.3080 15.08844570 57695,6917.866,95.437,540.524,538.939,0.0
52502.0,STARLINK-3912,PAYLOAD,2023-05-18 12:39:08,15.08842953,0.0001164,53.2155,325.7729,80.4555,279.6569,0.0001191,1.608e-05,0.0,0 STARLINK-3912,1 52502U 22049BD  23138.52718414  .00001608  00000-0  11910-3 0  9990,2 52502  53.2155 325.7729 0001164  80.4555 279.6569 15.08842953 57619,6917.871,95.437,540.542,538.931,0.0
52502.0,STARLINK-3912,PAYLOAD,2023-05-18 20:36:03,15.08852133,0.0001173,53.2156,324.2863,80.2275,279.8849,0.00025695,3.805e-05,0.0,0 STARLINK-3912,1 52502U 22049BD  23138.85837918  .00003805  00000-0  25695-3 0  9993,2 52502  53.2156 324.2863 0001173  80.2275 279.8849 15.08852133 57669,6917.843,95.437,540.52,538.897,0.0
52502.0,STARLINK-3912,PAYLOAD,2023-05-19 18:51:26,15.08871259,0.0001207,53.2155,320.1232,80.012,280.1008,0.00052175,8.033e-05,0.0,0 STARLINK-3912,1 52502U 22049BD  23139.78572541  .00008033  00000-0  52175-3 0  9995,2 52502  53.2155 320.1232 0001207  80.0120 280.1008 15.08871259 57963,6917.785,95.436,540.485,538.815,0.0
